{
  "type": "FeatureCollection",
  "features": [
    {
      "type": "Feature",
      "properties": {
        "norad_id": 31161,
        "name": "FENGYUN 1C DEB",
        "group": "fengyun-1c-debris",
        "lat": -28.839712211980313,
        "lon": 4.290093825311657,
        "alt_km": 832.5523523948859,
        "timestamp": "2025-12-03T13:52:09.842480+00:00",
        "meta_object_name": "FENGYUN 1C DEB",
        "meta_object_id": "1999-025BHP",
        "meta_epoch": "2025-12-03T07:11:24.504288",
        "meta_mean_motion": 14.09232742,
        "meta_eccentricity": 0.00687504,
        "meta_inclination": 98.7497,
        "meta_ra_of_asc_node": 359.155,
        "meta_arg_of_pericenter": 16.8912,
        "meta_mean_anomaly": 343.4526,
        "meta_ephemeris_type": 0,
        "meta_classification_type": "U",
        "meta_norad_cat_id": 31161,
        "meta_element_set_no": 999,
        "meta_rev_at_epoch": 95969,
        "meta_bstar": 0.00044500074,
        "meta_mean_motion_dot": 7.48e-06,
        "meta_mean_motion_ddot": 0,
        "tle_line1": "1 31161U 99025BHP 25337.29958917  .00000748  00000+0  44500-3 0  9991",
        "tle_line2": "2 31161  98.7497 359.1550 0068750  16.8912 343.4526 14.09232742959698"
      },
      "geometry": {
        "type": "Point",
        "coordinates": [
          4.290093825311657,
          -28.839712211980313
        ]
      }
    },
    {
      "type": "Feature",
      "properties": {
        "norad_id": 31165,
        "name": "FENGYUN 1C DEB",
        "group": "fengyun-1c-debris",
        "lat": 43.946225056675246,
        "lon": 27.868924352082367,
        "alt_km": 692.5531407049466,
        "timestamp": "2025-12-03T13:52:09.842490+00:00",
        "meta_object_name": "FENGYUN 1C DEB",
        "meta_object_id": "1999-025BHT",
        "meta_epoch": "2025-12-02T10:12:41.181696",
        "meta_mean_motion": 14.70789085,
        "meta_eccentricity": 0.0069243,
        "meta_inclination": 98.8876,
        "meta_ra_of_asc_node": 35.2878,
        "meta_arg_of_pericenter": 267.171,
        "meta_mean_anomaly": 158.7151,
        "meta_ephemeris_type": 0,
        "meta_classification_type": "U",
        "meta_norad_cat_id": 31165,
        "meta_element_set_no": 999,
        "meta_rev_at_epoch": 98603,
        "meta_bstar": 0.0014991028,
        "meta_mean_motion_dot": 9.448e-05,
        "meta_mean_motion_ddot": 0,
        "tle_line1": "1 31165U 99025BHT 25336.42547664  .00009448  00000+0  14991-2 0  9998",
        "tle_line2": "2 31165  98.8876  35.2878 0069243 267.1710 158.7151 14.70789085986038"
      },
      "geometry": {
        "type": "Point",
        "coordinates": [
          27.868924352082367,
          43.946225056675246
        ]
      }
    },
    {
      "type": "Feature",
      "properties": {
        "norad_id": 31168,
        "name": "FENGYUN 1C DEB",
        "group": "fengyun-1c-debris",
        "lat": 67.79608681509,
        "lon": 85.50060007469011,
        "alt_km": 592.0416176530725,
        "timestamp": "2025-12-03T13:52:09.842501+00:00",
        "meta_object_name": "FENGYUN 1C DEB",
        "meta_object_id": "1999-025BHW",
        "meta_epoch": "2025-12-01T20:38:19.940928",
        "meta_mean_motion": 14.67192574,
        "meta_eccentricity": 0.01091592,
        "meta_inclination": 98.8899,
        "meta_ra_of_asc_node": 106.1867,
        "meta_arg_of_pericenter": 97.2069,
        "meta_mean_anomaly": 264.1558,
        "meta_ephemeris_type": 0,
        "meta_classification_type": "U",
        "meta_norad_cat_id": 31168,
        "meta_element_set_no": 999,
        "meta_rev_at_epoch": 98961,
        "meta_bstar": 0.00097237733,
        "meta_mean_motion_dot": 5.927e-05,
        "meta_mean_motion_ddot": 0,
        "tle_line1": "1 31168U 99025BHW 25335.85995302  .00005927  00000+0  97238-3 0  9997",
        "tle_line2": "2 31168  98.8899 106.1867 0109159  97.2069 264.1558 14.67192574989619"
      },
      "geometry": {
        "type": "Point",
        "coordinates": [
          85.50060007469011,
          67.79608681509
        ]
      }
    },
    {
      "type": "Feature",
      "properties": {
        "norad_id": 31169,
        "name": "FENGYUN 1C DEB",
        "group": "fengyun-1c-debris",
        "lat": -15.90035363542004,
        "lon": -179.0427925387138,
        "alt_km": 845.7146725843213,
        "timestamp": "2025-12-03T13:52:09.842511+00:00",
        "meta_object_name": "FENGYUN 1C DEB",
        "meta_object_id": "1999-025BHX",
        "meta_epoch": "2025-11-27T00:22:38.661600",
        "meta_mean_motion": 14.26227458,
        "meta_eccentricity": 0.00585141,
        "meta_inclination": 99.1571,
        "meta_ra_of_asc_node": 356.7339,
        "meta_arg_of_pericenter": 63.3086,
        "meta_mean_anomaly": 297.4067,
        "meta_ephemeris_type": 0,
        "meta_classification_type": "U",
        "meta_norad_cat_id": 31169,
        "meta_element_set_no": 999,
        "meta_rev_at_epoch": 56880,
        "meta_bstar": 0.0023468028,
        "meta_mean_motion_dot": 5.684e-05,
        "meta_mean_motion_ddot": 0,
        "tle_line1": "1 31169U 99025BHX 25331.01572525  .00005684  00000+0  23468-2 0  9993",
        "tle_line2": "2 31169  99.1571 356.7339 0058514  63.3086 297.4067 14.26227458568802"
      },
      "geometry": {
        "type": "Point",
        "coordinates": [
          -179.0427925387138,
          -15.90035363542004
        ]
      }
    },
    {
      "type": "Feature",
      "properties": {
        "norad_id": 31171,
        "name": "FENGYUN 1C DEB",
        "group": "fengyun-1c-debris",
        "lat": 20.432923926220024,
        "lon": -35.1047364707261,
        "alt_km": 686.7530652899277,
        "timestamp": "2025-12-03T13:52:09.842522+00:00",
        "meta_object_name": "FENGYUN 1C DEB",
        "meta_object_id": "1999-025BHZ",
        "meta_epoch": "2025-12-01T17:22:59.057760",
        "meta_mean_motion": 14.34250584,
        "meta_eccentricity": 0.01564852,
        "meta_inclination": 98.0147,
        "meta_ra_of_asc_node": 326.1842,
        "meta_arg_of_pericenter": 349.8031,
        "meta_mean_anomaly": 184.5738,
        "meta_ephemeris_type": 0,
        "meta_classification_type": "U",
        "meta_norad_cat_id": 31171,
        "meta_element_set_no": 999,
        "meta_rev_at_epoch": 95672,
        "meta_bstar": 0.0053219824,
        "meta_mean_motion_dot": 0.0001713,
        "meta_mean_motion_ddot": 0,
        "tle_line1": "1 31171U 99025BHZ 25335.72429465  .00017130  00000+0  53220-2 0  9990",
        "tle_line2": "2 31171  98.0147 326.1842 0156485 349.8031 184.5738 14.34250584956728"
      },
      "geometry": {
        "type": "Point",
        "coordinates": [
          -35.1047364707261,
          20.432923926220024
        ]
      }
    },
    {
      "type": "Feature",
      "properties": {
        "norad_id": 31172,
        "name": "FENGYUN 1C DEB",
        "group": "fengyun-1c-debris",
        "lat": 20.56897974980103,
        "lon": -20.867604851429864,
        "alt_km": 775.8924103302224,
        "timestamp": "2025-12-03T13:52:09.842532+00:00",
        "meta_object_name": "FENGYUN 1C DEB",
        "meta_object_id": "1999-025BJA",
        "meta_epoch": "2025-12-03T07:03:47.628000",
        "meta_mean_motion": 14.31497145,
        "meta_eccentricity": 0.01482497,
        "meta_inclination": 98.4248,
        "meta_ra_of_asc_node": 342.0453,
        "meta_arg_of_pericenter": 296.7224,
        "meta_mean_anomaly": 61.885,
        "meta_ephemeris_type": 0,
        "meta_classification_type": "U",
        "meta_norad_cat_id": 31172,
        "meta_element_set_no": 999,
        "meta_rev_at_epoch": 97491,
        "meta_bstar": 0.00025560792,
        "meta_mean_motion_dot": 7.19e-06,
        "meta_mean_motion_ddot": 0,
        "tle_line1": "1 31172U 99025BJA 25337.29430125  .00000719  00000+0  25561-3 0  9993",
        "tle_line2": "2 31172  98.4248 342.0453 0148249 296.7224  61.8850 14.31497145974919"
      },
      "geometry": {
        "type": "Point",
        "coordinates": [
          -20.867604851429864,
          20.56897974980103
        ]
      }
    },
    {
      "type": "Feature",
      "properties": {
        "norad_id": 31175,
        "name": "FENGYUN 1C DEB",
        "group": "fengyun-1c-debris",
        "lat": 67.77957735187945,
        "lon": -43.562951098504755,
        "alt_km": 718.2199407384496,
        "timestamp": "2025-12-03T13:52:09.842542+00:00",
        "meta_object_name": "FENGYUN 1C DEB",
        "meta_object_id": "1999-025BJD",
        "meta_epoch": "2025-12-01T05:36:03.315744",
        "meta_mean_motion": 14.59321579,
        "meta_eccentricity": 0.0074068,
        "meta_inclination": 98.3999,
        "meta_ra_of_asc_node": 335.2701,
        "meta_arg_of_pericenter": 201.7312,
        "meta_mean_anomaly": 158.074,
        "meta_ephemeris_type": 0,
        "meta_classification_type": "U",
        "meta_norad_cat_id": 31175,
        "meta_element_set_no": 999,
        "meta_rev_at_epoch": 65471,
        "meta_bstar": 0.0049007129,
        "meta_mean_motion_dot": 0.000241,
        "meta_mean_motion_ddot": 0,
        "tle_line1": "1 31175U 99025BJD 25335.23337171  .00024100  00000+0  49007-2 0  9995",
        "tle_line2": "2 31175  98.3999 335.2701 0074068 201.7312 158.0740 14.59321579654712"
      },
      "geometry": {
        "type": "Point",
        "coordinates": [
          -43.562951098504755,
          67.77957735187945
        ]
      }
    }
  ]
}